[{"OBJECT_NAME":"STARLINK-1790","OBJECT_ID":"2020-073X","EPOCH":"2026-03-10T00:00:02.999808","MEAN_MOTION":15.73247405,"ECCENTRICITY":0.00030153,"INCLINATION":53.0418,"RA_OF_ASC_NODE":197.0184,"ARG_OF_PERICENTER":160.3471,"MEAN_ANOMALY":75.7637,"EPHEMERIS_TYPE":0,"CLASSIFICATION_TYPE":"U","NORAD_CAT_ID":46691,"ELEMENT_SET_NO":999,"REV_AT_EPOCH":596,"BSTAR":0.00070221254,"MEAN_MOTION_DOT":0.00099338,"MEAN_MOTION_DDOT":0},{"OBJECT_NAME":"STARLINK-11701 [DTC]","OBJECT_ID":"2025-089K","EPOCH":"2026-03-09T00:24:08.483040","MEAN_MOTION":15.71071026,"ECCENTRICITY":0.00014707,"INCLINATION":42.9998,"RA_OF_ASC_NODE":295.9414,"ARG_OF_PERICENTER":288.6181,"MEAN_ANOMALY":71.4527,"EPHEMERIS_TYPE":0,"CLASSIFICATION_TYPE":"U","NORAD_CAT_ID":63760,"ELEMENT_SET_NO":999,"REV_AT_EPOCH":5003,"BSTAR":0.0022051176,"MEAN_MOTION_DOT":0.00295652,"MEAN_MOTION_DDOT":0}]
